[{"OBJECT_NAME":"LEMUR-2-SPECIAL-K","OBJECT_ID":"2021-034F","EPOCH":"2026-03-09T04:45:37.225728","MEAN_MOTION":15.45301627,"ECCENTRICITY":0.000161,"INCLINATION":97.5708,"RA_OF_ASC_NODE":149.4876,"ARG_OF_PERICENTER":218.063,"MEAN_ANOMALY":142.0505,"EPHEMERIS_TYPE":0,"CLASSIFICATION_TYPE":"U","NORAD_CAT_ID":48273,"ELEMENT_SET_NO":999,"REV_AT_EPOCH":26616,"BSTAR":0.0015003496,"MEAN_MOTION_DOT":0.0007194,"MEAN_MOTION_DDOT":0},{"OBJECT_NAME":"NOAA 16 DEB","OBJECT_ID":"2000-055SK","EPOCH":"2026-03-05T05:58:49.594368","MEAN_MOTION":15.3641659,"ECCENTRICITY":0.0010286,"INCLINATION":99.0048,"RA_OF_ASC_NODE":336.64,"ARG_OF_PERICENTER":96.489,"MEAN_ANOMALY":263.752,"EPHEMERIS_TYPE":0,"CLASSIFICATION_TYPE":"U","NORAD_CAT_ID":42391,"ELEMENT_SET_NO":999,"REV_AT_EPOCH":52415,"BSTAR":0.017602,"MEAN_MOTION_DOT":0.00674336,"MEAN_MOTION_DDOT":0}]
